AEROCUBE 6A             
1 40045U 14033AM  26068.93083119  .00007845  00000+0  67890-3 0  9996
2 40045  97.7128 237.0691 0038730 349.0559  10.9816 14.96848607631764
STARLINK-5816           
1 55778U 23028AP  26068.86960900  .00000717  00000+0  67910-4 0  9998
2 55778  69.9999 223.8557 0003127 268.8110  91.2690 14.98317353166561
